CTC2_L_00598001-01
1 10000U 23904DX  26075.70049769  .00000000  00000+0  00000-0 0  9990
2 10000  65.0000   0.0000 0000000   0.0000   0.0000  6.30405269    10
CTC2_L_00598001-02
1 10001U 23051YY  26075.70049769  .00000000  00000+0  00000-0 0  9994
2 10001  65.0000   0.0000 0000000   0.0000  36.0000  6.30405269    10
CTC2_L_00598001-03
1 10002U 22740NB  26075.70049769  .00000000  00000+0  00000-0 0  9999
2 10002  65.0000   0.0000 0000000   0.0000  72.0000  6.30405269    11
CTC2_L_00598001-04
1 10003U 26676UU  26075.70049769  .00000000  00000+0  00000-0 0  9992
2 10003  65.0000   0.0000 0000000   0.0000 108.0000  6.30405269    12
CTC2_L_00598001-05
1 10004U 24856PK  26075.70049769  .00000000  00000+0  00000-0 0  9991
2 10004  65.0000   0.0000 0000000   0.0000 144.0000  6.30405269    13
CTC2_L_00598001-06
1 10005U 22509HI  26075.70049769  .00000000  00000+0  00000-0 0  9995
2 10005  65.0000   0.0000 0000000   0.0000 180.0000  6.30405269    14
CTC2_L_00598001-07
1 10006U 26534EI  26075.70049769  .00000000  00000+0  00000-0 0  9998
2 10006  65.0000   0.0000 0000000   0.0000 216.0000  6.30405269    15
CTC2_L_00598001-08
1 10007U 25420NB  26075.70049769  .00000000  00000+0  00000-0 0  9992
2 10007  65.0000   0.0000 0000000   0.0000 252.0000  6.30405269    16
CTC2_L_00598001-09
1 10008U 25321CQ  26075.70049769  .00000000  00000+0  00000-0 0  9993
2 10008  65.0000   0.0000 0000000   0.0000 288.0000  6.30405269    16
CTC2_L_00598001-10
1 10009U 23699BP  26075.70049769  .00000000  00000+0  00000-0 0  9990
2 10009  65.0000   0.0000 0000000   0.0000 324.0000  6.30405269    18
CTC2_L_00598002-01
1 10010U 24536JD  26075.70049769  .00000000  00000+0  00000-0 0  9993
2 10010  65.0000  30.0000 0000000   0.0000  12.0000  6.30405269    17
CTC2_L_00598002-02
1 10011U 22161HP  26075.70049769  .00000000  00000+0  00000-0 0  9996
2 10011  65.0000  30.0000 0000000   0.0000  48.0000  6.30405269    17
CTC2_L_00598002-03
1 10012U 24880NE  26075.70049769  .00000000  00000+0  00000-0 0  9997
2 10012  65.0000  30.0000 0000000   0.0000  84.0000  6.30405269    18
CTC2_L_00598002-04
1 10013U 26237TO  26075.70049769  .00000000  00000+0  00000-0 0  9996
2 10013  65.0000  30.0000 0000000   0.0000 120.0000  6.30405269    10
CTC2_L_00598002-05
1 10014U 25912TA  26075.70049769  .00000000  00000+0  00000-0 0  9996
2 10014  65.0000  30.0000 0000000   0.0000 156.0000  6.30405269    10
CTC2_L_00598002-06
1 10015U 26321EE  26075.70049769  .00000000  00000+0  00000-0 0  9992
2 10015  65.0000  30.0000 0000000   0.0000 192.0000  6.30405269    11
CTC2_L_00598002-07
1 10016U 22104HP  26075.70049769  .00000000  00000+0  00000-0 0  9998
2 10016  65.0000  30.0000 0000000   0.0000 228.0000  6.30405269    12
CTC2_L_00598002-08
1 10017U 23767KU  26075.70049769  .00000000  00000+0  00000-0 0  9995
2 10017  65.0000  30.0000 0000000   0.0000 264.0000  6.30405269    13
CTC2_L_00598002-09
1 10018U 24140NG  26075.70049769  .00000000  00000+0  00000-0 0  9992
2 10018  65.0000  30.0000 0000000   0.0000 300.0000  6.30405269    15
CTC2_L_00598002-10
1 10019U 26457YL  26075.70049769  .00000000  00000+0  00000-0 0  9996
2 10019  65.0000  30.0000 0000000   0.0000 336.0000  6.30405269    15
CTC2_L_00598003-01
1 10020U 23078WK  26075.70049769  .00000000  00000+0  00000-0 0  9994
2 10020  65.0000  60.0000 0000000   0.0000  24.0000  6.30405269    14
CTC2_L_00598003-02
1 10021U 26539NC  26075.70049769  .00000000  00000+0  00000-0 0  9990
2 10021  65.0000  60.0000 0000000   0.0000  60.0000  6.30405269    15
CTC2_L_00598003-03
1 10022U 25079HK  26075.70049769  .00000000  00000+0  00000-0 0  9999
2 10022  65.0000  60.0000 0000000   0.0000  96.0000  6.30405269    15
CTC2_L_00598003-04
1 10023U 24520DA  26075.70049769  .00000000  00000+0  00000-0 0  9990
2 10023  65.0000  60.0000 0000000   0.0000 132.0000  6.30405269    17
CTC2_L_00598003-05
1 10024U 26006SS  26075.70049769  .00000000  00000+0  00000-0 0  9992
2 10024  65.0000  60.0000 0000000   0.0000 168.0000  6.30405269    17
CTC2_L_00598003-06
1 10025U 24167FN  26075.70049769  .00000000  00000+0  00000-0 0  9999
2 10025  65.0000  60.0000 0000000   0.0000 204.0000  6.30405269    19
CTC2_L_00598003-07
1 10026U 25833IC  26075.70049769  .00000000  00000+0  00000-0 0  9991
2 10026  65.0000  60.0000 0000000   0.0000 240.0000  6.30405269    10
CTC2_L_00598003-08
1 10027U 23993HK  26075.70049769  .00000000  00000+0  00000-0 0  9997
2 10027  65.0000  60.0000 0000000   0.0000 276.0000  6.30405269    10
CTC2_L_00598003-09
1 10028U 26729GN  26075.70049769  .00000000  00000+0  00000-0 0  9998
2 10028  65.0000  60.0000 0000000   0.0000 312.0000  6.30405269    12
CTC2_L_00598003-10
1 10029U 26655RV  26075.70049769  .00000000  00000+0  00000-0 0  9997
2 10029  65.0000  60.0000 0000000   0.0000 348.0000  6.30405269    12
CTC2_L_00598004-01
1 10030U 22961AT  26075.70049769  .00000000  00000+0  00000-0 0  9995
2 10030  65.0000  90.0000 0000000   0.0000  36.0000  6.30405269    11
CTC2_L_00598004-02
1 10031U 24875OZ  26075.70049769  .00000000  00000+0  00000-0 0  9992
2 10031  65.0000  90.0000 0000000   0.0000  72.0000  6.30405269    12
CTC2_L_00598004-03
1 10032U 22214SA  26075.70049769  .00000000  00000+0  00000-0 0  9998
2 10032  65.0000  90.0000 0000000   0.0000 108.0000  6.30405269    13
CTC2_L_00598004-04
1 10033U 23765HW  26075.70049769  .00000000  00000+0  00000-0 0  9991
2 10033  65.0000  90.0000 0000000   0.0000 144.0000  6.30405269    14
CTC2_L_00598004-05
1 10034U 26605EG  26075.70049769  .00000000  00000+0  00000-0 0  9998
2 10034  65.0000  90.0000 0000000   0.0000 180.0000  6.30405269    15
CTC2_L_00598004-06
1 10035U 25060IM  26075.70049769  .00000000  00000+0  00000-0 0  9993
2 10035  65.0000  90.0000 0000000   0.0000 216.0000  6.30405269    16
CTC2_L_00598004-07
1 10036U 25833GB  26075.70049769  .00000000  00000+0  00000-0 0  9992
2 10036  65.0000  90.0000 0000000   0.0000 252.0000  6.30405269    17
CTC2_L_00598004-08
1 10037U 23185PN  26075.70049769  .00000000  00000+0  00000-0 0  9991
2 10037  65.0000  90.0000 0000000   0.0000 288.0000  6.30405269    17
CTC2_L_00598004-09
1 10038U 25675NG  26075.70049769  .00000000  00000+0  00000-0 0  9998
2 10038  65.0000  90.0000 0000000   0.0000 324.0000  6.30405269    19
CTC2_L_00598004-10
1 10039U 24597JS  26075.70049769  .00000000  00000+0  00000-0 0  9991
2 10039  65.0000  90.0000 0000000   0.0000   0.0000  6.30405269    11
CTC2_L_00598005-01
1 10040U 23885YH  26075.70049769  .00000000  00000+0  00000-0 0  9992
2 10040  65.0000 120.0000 0000000   0.0000  48.0000  6.30405269    19
CTC2_L_00598005-02
1 10041U 23156NR  26075.70049769  .00000000  00000+0  00000-0 0  9994
2 10041  65.0000 120.0000 0000000   0.0000  84.0000  6.30405269    10
CTC2_L_00598005-03
1 10042U 26080EF  26075.70049769  .00000000  00000+0  00000-0 0  9994
2 10042  65.0000 120.0000 0000000   0.0000 120.0000  6.30405269    12
CTC2_L_00598005-04
1 10043U 25896GY  26075.70049769  .00000000  00000+0  00000-0 0  9999
2 10043  65.0000 120.0000 0000000   0.0000 156.0000  6.30405269    12
CTC2_L_00598005-05
1 10044U 25319RT  26075.70049769  .00000000  00000+0  00000-0 0  9990
2 10044  65.0000 120.0000 0000000   0.0000 192.0000  6.30405269    13
CTC2_L_00598005-06
1 10045U 23158FZ  26075.70049769  .00000000  00000+0  00000-0 0  9990
2 10045  65.0000 120.0000 0000000   0.0000 228.0000  6.30405269    14
CTC2_L_00598005-07
1 10046U 24627RD  26075.70049769  .00000000  00000+0  00000-0 0  9993
2 10046  65.0000 120.0000 0000000   0.0000 264.0000  6.30405269    15
CTC2_L_00598005-08
1 10047U 24826YL  26075.70049769  .00000000  00000+0  00000-0 0  9995
2 10047  65.0000 120.0000 0000000   0.0000 300.0000  6.30405269    17
CTC2_L_00598005-09
1 10048U 22961YC  26075.70049769  .00000000  00000+0  00000-0 0  9994
2 10048  65.0000 120.0000 0000000   0.0000 336.0000  6.30405269    17
CTC2_L_00598005-10
1 10049U 25683MC  26075.70049769  .00000000  00000+0  00000-0 0  9999
2 10049  65.0000 120.0000 0000000   0.0000  12.0000  6.30405269    19
CTC2_L_00598006-01
1 10050U 22259ZQ  26075.70049769  .00000000  00000+0  00000-0 0  9997
2 10050  65.0000 150.0000 0000000   0.0000  60.0000  6.30405269    17
CTC2_L_00598006-02
1 10051U 26863UT  26075.70049769  .00000000  00000+0  00000-0 0  9993
2 10051  65.0000 150.0000 0000000   0.0000  96.0000  6.30405269    17
CTC2_L_00598006-03
1 10052U 22278VS  26075.70049769  .00000000  00000+0  00000-0 0  9990
2 10052  65.0000 150.0000 0000000   0.0000 132.0000  6.30405269    19
CTC2_L_00598006-04
1 10053U 24602A   26075.70049769  .00000000  00000+0  00000-0 0  9994
2 10053  65.0000 150.0000 0000000   0.0000 168.0000  6.30405269    19
CTC2_L_00598006-05
1 10054U 23826UV  26075.70049769  .00000000  00000+0  00000-0 0  9992
2 10054  65.0000 150.0000 0000000   0.0000 204.0000  6.30405269    11
CTC2_L_00598006-06
1 10055U 23797WI  26075.70049769  .00000000  00000+0  00000-0 0  9990
2 10055  65.0000 150.0000 0000000   0.0000 240.0000  6.30405269    12
CTC2_L_00598006-07
1 10056U 26047FH  26075.70049769  .00000000  00000+0  00000-0 0  9992
2 10056  65.0000 150.0000 0000000   0.0000 276.0000  6.30405269    12
CTC2_L_00598006-08
1 10057U 22043XR  26075.70049769  .00000000  00000+0  00000-0 0  9995
2 10057  65.0000 150.0000 0000000   0.0000 312.0000  6.30405269    14
CTC2_L_00598006-09
1 10058U 25094MP  26075.70049769  .00000000  00000+0  00000-0 0  9995
2 10058  65.0000 150.0000 0000000   0.0000 348.0000  6.30405269    14
CTC2_L_00598006-10
1 10059U 25642NN  26075.70049769  .00000000  00000+0  00000-0 0  9995
2 10059  65.0000 150.0000 0000000   0.0000  24.0000  6.30405269    16
CTC2_L_00598007-01
1 10060U 26667W   26075.70049769  .00000000  00000+0  00000-0 0  9995
2 10060  65.0000 180.0000 0000000   0.0000  72.0000  6.30405269    14
CTC2_L_00598007-02
1 10061U 22126DD  26075.70049769  .00000000  00000+0  00000-0 0  9992
2 10061  65.0000 180.0000 0000000   0.0000 108.0000  6.30405269    15
